OBJECT_NAME,OBJECT_ID,EPOCH,MEAN_MOTION,ECCENTRICITY,INCLINATION,RA_OF_ASC_NODE,ARG_OF_PERICENTER,MEAN_ANOMALY,EPHEMERIS_TYPE,CLASSIFICATION_TYPE,NORAD_CAT_ID,ELEMENT_SET_NO,REV_AT_EPOCH,BSTAR,MEAN_MOTION_DOT,MEAN_MOTION_DDOT
KUZGTU 1 (RS47S),2023-091AV,2026-06-14T11:35:46.269024,15.29807340,.0012361,97.5070,229.9354,106.3322,253.9278,0,U,57217,999,16396,.39998E-3,.115E-3,0
SONATE-2,2024-043Q,2026-06-14T09:03:49.181184,15.58528867,.0006925,97.5521,315.6018,204.5618,155.5308,0,U,59112,999,12745,.51236E-3,.39204E-3,0
MESAT1,2024-125G,2026-06-14T08:28:55.450848,15.62929201,.0009301,97.2290,22.7722,214.1417,145.9245,0,U,60209,999,10912,.58212E-3,.52864E-3,0
OOV-CUBE (TUBSAT-30),2024-128F,2026-06-14T11:03:02.422944,15.02764725,.0044975,61.9947,235.0813,133.0813,227.4056,0,U,60240,999,10570,.16374E-3,.2032E-4,0
COLIBRI-S (RS67S),2024-199M,2026-06-14T11:24:51.991200,15.47626869,.0006267,97.2999,39.3060,292.1628,67.8957,0,U,61746,999,13699,.42006E-3,.21623E-3,0
HORS 3 (RS81S),2024-199U,2026-06-14T12:21:58.762944,15.54808469,.0003732,97.2984,41.3037,294.6736,65.4129,0,U,61753,999,13714,.52649E-3,.3506E-3,0
HORS 4 (RS82S),2024-199V,2026-06-14T11:36:45.694080,15.59462550,.0003003,97.2930,42.4556,274.7936,85.2978,0,U,61754,999,13722,.60657E-3,.48109E-3,0
ARCTICSAT 1 (RS74S),2024-199AD,2026-06-14T02:23:11.420736,16.38817654,.00107607,97.2739,49.3340,237.4855,122.5405,0,U,61762,999,13763,.82633616E-3,.9062228E-1,.249247E-5
SIT-2086,2024-199AF,2026-06-14T11:45:58.493376,15.52921066,.0004371,97.2940,41.7642,265.3330,94.7424,0,U,61764,999,13401,.56374E-3,.35068E-3,0
HYPERVIEW 1G (RS66S),2024-199AP,2026-06-14T11:00:16.911648,15.75192654,.000316,97.2883,45.0414,232.2786,127.8193,0,U,61772,999,13424,.91725E-3,.138971E-2,0
ALTAIR (RS65S),2024-199AW,2026-06-14T12:11:17.905632,15.36984988,.0011354,97.3034,34.8769,322.0845,37.9599,0,U,61779,999,13670,.26357E-3,.9474E-4,0
ASRTU-1 (AO-123),2024-199AY,2026-06-14T11:50:29.925024,15.35641888,.0012538,97.3005,34.1891,324.8142,35.2272,0,U,61781,999,13351,.21365E-3,.7341E-4,0
SAMSAT-IONOSPHERE (RS75S),2024-199BB,2026-06-14T11:44:55.568256,15.57414592,.0005847,97.2952,41.3145,290.8345,69.2284,0,U,61784,999,13714,.58742E-3,.43137E-3,0
RTU MIREA 1 (RS51S),2024-199BC,2026-06-14T12:28:38.076096,15.60832235,.0005455,97.2942,42.1633,281.6876,78.3769,0,U,61785,999,13405,.60513E-3,.50601E-3,0
TEVEL2-4,2025-052D,2026-06-14T05:56:56.399136,15.34521114,.0004817,97.3916,61.6351,109.6731,250.5032,0,U,63213,999,6966,.56859E-3,.18966E-3,0
TEVEL2-5,2025-052E,2026-06-14T11:07:43.260096,15.34355748,.0004726,97.3913,61.8001,110.0709,250.1043,0,U,63214,999,6969,.55029E-3,.18255E-3,0
TEVEL2-6,2025-052F,2026-06-14T06:43:38.807328,15.34313968,.0004644,97.3919,61.6008,110.4903,249.6839,0,U,63215,999,6966,.5622E-3,.18628E-3,0
TEVEL2-1,2025-052H,2026-06-14T10:31:53.175360,15.33788799,.0004657,97.3887,61.3872,119.1952,240.9757,0,U,63217,999,6967,.53395E-3,.17394E-3,0
TEVEL2-3,2025-052J,2026-06-14T05:42:29.139264,15.33837086,.0004602,97.3893,61.2078,119.3991,240.7711,0,U,63218,999,6964,.54634E-3,.17827E-3,0
TEVEL2-2,2025-052K,2026-06-14T10:32:21.607872,15.33796885,.000465,97.3889,61.3900,119.9799,240.1905,0,U,63219,999,6967,.53565E-3,.17454E-3,0
TEVEL2-9,2025-052AD,2026-06-14T06:46:36.615072,15.31820596,.0007557,97.3950,60.6144,138.8374,221.3439,0,U,63237,999,6958,.53265E-3,.16318E-3,0
TEVEL2-7,2025-052AE,2026-06-14T12:26:58.190784,15.31532651,.0007669,97.3954,60.7678,138.7372,221.4450,0,U,63238,999,6961,.49572E-3,.15043E-3,0
TEVEL2-8,2025-052AF,2026-06-14T11:04:43.668192,15.31515493,.0007686,97.3953,60.6877,139.5843,220.5971,0,U,63239,999,6960,.52562E-3,.15949E-3,0
INNOSAT 16 (RS92S7),2025-155C,2026-06-14T12:13:28.889760,15.25431870,.0010239,97.4559,132.6457,184.7610,175.3532,0,U,64878,999,8026,.22141E-3,.5531E-4,0
GEOSCAN 6 (RS92S6),2025-155D,2026-06-14T12:00:28.518048,15.30107173,.0008005,97.4551,134.0418,171.0646,189.0738,0,U,64879,999,8035,.32497E-3,.9402E-4,0
GEOSCAN 1 (RS92S1),2025-155E,2026-06-14T12:05:30.060096,15.30699709,.0007953,97.4548,134.1909,170.7456,189.3932,0,U,64880,999,8036,.33757E-3,.9951E-4,0
239ALFEROV (RS61S),2025-155F,2026-06-14T11:27:17.449920,15.32874579,.0007669,97.4548,134.7166,167.6163,192.5269,0,U,64881,999,8039,.42479E-3,.13429E-3,0
GEOSCAN 2 (RS92S2),2025-155Q,2026-06-14T11:57:05.444352,15.30970056,.0007794,97.4546,134.3365,157.5010,202.6575,0,U,64890,999,8037,.32652E-3,.9703E-4,0
GEOSCAN 5 (RS92S5),2025-155R,2026-06-14T12:46:16.635072,15.33194454,.0006383,97.4540,134.9084,170.8436,189.2924,0,U,64891,999,8041,.41417E-3,.13219E-3,0
GEOSCAN 4 (RS92S4),2025-155S,2026-06-14T12:23:53.809728,15.33347667,.0006446,97.4544,134.9403,170.6587,189.4776,0,U,64892,999,8041,.42774E-3,.13722E-3,0
