KUZGTU 1 (RS47S)        
1 57217U 23091AV  26165.48317441  .00011500  00000+0  39998-3 0  9996
2 57217  97.5070 229.9354 0012361 106.3322 253.9278 15.29807340163966
SONATE-2                
1 59112U 24043Q   26165.37765256  .00039204  00000+0  51236-3 0  9999
2 59112  97.5521 315.6018 0006925 204.5618 155.5308 15.58528867127452
MESAT1                  
1 60209U 24125G   26165.35341957  .00052864  00000+0  58212-3 0  9993
2 60209  97.2290  22.7722 0009301 214.1417 145.9245 15.62929201109123
OOV-CUBE (TUBSAT-30)    
1 60240U 24128F   26165.46044471  .00002032  00000+0  16374-3 0  9999
2 60240  61.9947 235.0813 0044975 133.0813 227.4056 15.02764725105708
COLIBRI-S (RS67S)       
1 61746U 24199M   26165.47560175  .00021623  00000+0  42006-3 0  9992
2 61746  97.2999  39.3060 0006267 292.1628  67.8957 15.47626869136997
HORS 3 (RS81S)          
1 61753U 24199U   26165.51526346  .00035060  00000+0  52649-3 0  9991
2 61753  97.2984  41.3037 0003732 294.6736  65.4129 15.54808469137146
HORS 4 (RS82S)          
1 61754U 24199V   26165.48386220  .00048109  00000+0  60657-3 0  9999
2 61754  97.2930  42.4556 0003003 274.7936  85.2978 15.59462550137221
ARCTICSAT 1 (RS74S)     
1 61762U 24199AD  26165.09943774  .09062228  24925-5  82634-3 0  9992
2 61762  97.2739  49.3340 0010760 237.4855 122.5405 16.38817654137630
SIT-2086                
1 61764U 24199AF  26165.49026034  .00035068  00000+0  56374-3 0  9996
2 61764  97.2940  41.7642 0004371 265.3330  94.7424 15.52921066134014
HYPERVIEW 1G (RS66S)    
1 61772U 24199AP  26165.45852907  .00138971  00000+0  91725-3 0  9993
2 61772  97.2883  45.0414 0003160 232.2786 127.8193 15.75192654134240
ALTAIR (RS65S)          
1 61779U 24199AW  26165.50784613  .00009474  00000+0  26357-3 0  9998
2 61779  97.3034  34.8769 0011354 322.0845  37.9599 15.36984988136703
ASRTU-1 (AO-123)        
1 61781U 24199AY  26165.49340191  .00007341  00000+0  21365-3 0  9993
2 61781  97.3005  34.1891 0012538 324.8142  35.2272 15.35641888133511
SAMSAT-IONOSPHERE (RS7*)
1 61784U 24199BB  26165.48953204  .00043137  00000+0  58742-3 0  9992
2 61784  97.2952  41.3145 0005847 290.8345  69.2284 15.57414592137145
RTU MIREA 1 (RS51S)     
1 61785U 24199BC  26165.51988514  .00050601  00000+0  60513-3 0  9992
2 61785  97.2942  42.1633 0005455 281.6876  78.3769 15.60832235134056
TEVEL2-4                
1 63213U 25052D   26165.24787499  .00018966  00000+0  56859-3 0  9994
2 63213  97.3916  61.6351 0004817 109.6731 250.5032 15.34521114 69662
TEVEL2-5                
1 63214U 25052E   26165.46369514  .00018255  00000+0  55029-3 0  9992
2 63214  97.3913  61.8001 0004726 110.0709 250.1043 15.34355748 69693
TEVEL2-6                
1 63215U 25052F   26165.28031027  .00018628  00000+0  56220-3 0  9996
2 63215  97.3919  61.6008 0004644 110.4903 249.6839 15.34313968 69665
TEVEL2-1                
1 63217U 25052H   26165.43880990  .00017394  00000+0  53395-3 0  9995
2 63217  97.3887  61.3872 0004657 119.1952 240.9757 15.33788799 69672
TEVEL2-3                
1 63218U 25052J   26165.23783726  .00017827  00000+0  54634-3 0  9991
2 63218  97.3893  61.2078 0004602 119.3991 240.7711 15.33837086 69641
TEVEL2-2                
1 63219U 25052K   26165.43913898  .00017454  00000+0  53565-3 0  9997
2 63219  97.3889  61.3900 0004650 119.9799 240.1905 15.33796885 69670
TEVEL2-9                
1 63237U 25052AD  26165.28236823  .00016318  00000+0  53265-3 0  9991
2 63237  97.3950  60.6144 0007557 138.8374 221.3439 15.31820596 69587
TEVEL2-7                
1 63238U 25052AE  26165.51872906  .00015043  00000+0  49572-3 0  9996
2 63238  97.3954  60.7678 0007669 138.7372 221.4450 15.31532651 69616
TEVEL2-8                
1 63239U 25052AF  26165.46161653  .00015949  00000+0  52562-3 0  9999
2 63239  97.3953  60.6877 0007686 139.5843 220.5971 15.31515493 69609
INNOSAT 16 (RS92S7)     
1 64878U 25155C   26165.50936215  .00005531  00000+0  22141-3 0  9998
2 64878  97.4559 132.6457 0010239 184.7610 175.3532 15.25431870 80262
GEOSCAN 6 (RS92S6)      
1 64879U 25155D   26165.50033007  .00009402  00000+0  32497-3 0  9992
2 64879  97.4551 134.0418 0008005 171.0646 189.0738 15.30107173 80356
GEOSCAN 1 (RS92S1)      
1 64880U 25155E   26165.50382014  .00009951  00000+0  33757-3 0  9998
2 64880  97.4548 134.1909 0007953 170.7456 189.3932 15.30699709 80367
239ALFEROV (RS61S)      
1 64881U 25155F   26165.47728530  .00013429  00000+0  42479-3 0  9998
2 64881  97.4548 134.7166 0007669 167.6163 192.5269 15.32874579 80397
GEOSCAN 2 (RS92S2)      
1 64890U 25155Q   26165.49797968  .00009703  00000+0  32652-3 0  9993
2 64890  97.4546 134.3365 0007794 157.5010 202.6575 15.30970056 80376
GEOSCAN 5 (RS92S5)      
1 64891U 25155R   26165.53213698  .00013219  00000+0  41417-3 0  9998
2 64891  97.4540 134.9084 0006383 170.8436 189.2924 15.33194454 80414
GEOSCAN 4 (RS92S4)      
1 64892U 25155S   26165.51659502  .00013722  00000+0  42774-3 0  9991
2 64892  97.4544 134.9403 0006446 170.6587 189.4776 15.33347667 80412
